IRIDIUM 26              
1 24903U 97043A   25316.27573442  .00001031  00000+0  33951-3 0  9990
2 24903  86.3978  48.3619 0001970  90.2141 269.9282 14.37290613478010
IRIDIUM 22              
1 24907U 97043E   25316.25887574  .00000952  00000+0  32047-3 0  9992
2 24907  86.3976  52.0357 0002000  95.7975 264.3450 14.36088425478025
DUMMY MASS 1            
1 24925U 97048A   25316.32481692  .00001096  00000+0  11889-3 0  9997
2 24925  86.3345  66.7774 0006282   2.3137 357.8116 14.87141343527140
DUMMY MASS 2            
1 24926U 97048B   25316.31169861  .00001107  00000+0  12087-3 0  9992
2 24926  86.3343  68.4190 0007503  11.3614 348.7779 14.86891998526912
IRIDIUM 29              
1 24944U 97051A   25316.29801880  .00001201  00000+0  40193-3 0  9991
2 24944  86.3936  81.7241 0002155  97.2750 262.8692 14.36619625474537
IRIDIUM 33              
1 24946U 97051C   25316.30444032  .00000855  00000+0  29367-3 0  9991
2 24946  86.3853  80.9957 0006496 327.0890  32.9901 14.35003577473982
IRIDIUM 28              
1 24948U 97051E   25316.31729539  .00001074  00000+0  35216-3 0  9996
2 24948  86.3944  79.1458 0001722  79.7156 280.4236 14.37522009475121
IRIDIUM 36              
1 24967U 97056C   25315.97905877  .00000752  00000+0  24367-3 0  9991
2 24967  86.3933 110.9206 0001789  89.8223 270.3180 14.37739229473459
